ORBCOMM-X [-]           
1 21576U 91050C   23291.62847504  .00000680  00000+0  21968-3 0  9991
2 21576  98.4224 357.4235 0003113 203.3578 156.7470 14.42216972694510
ORBCOMM FM01 [-]        
1 23545U 95017A   23292.49411842  .00008253  00000+0  11818-2 0  9990
2 23545  69.9668 129.7162 0005062 190.3258 169.7787 14.76878988522925
ORBCOMM FM02 [-]        
1 23546U 95017B   23291.85597078  .00007461  00000+0  10810-2 0  9997
2 23546  69.9689 150.3265 0006518 174.2684 185.8540 14.76419555522134
ORBCOMM FM08 [-]        
1 25112U 97084A   23292.14738467  .00002887  00000+0  92579-3 0  9996
2 25112  45.0162  30.9859 0005776  70.4792 289.6681 14.41413634353832
ORBCOMM FM10 [-]        
1 25113U 97084B   23291.58964907  .00003035  00000+0  97235-3 0  9994
2 25113  45.0174  35.3648 0003428  27.0747 333.0281 14.41353514528734
ORBCOMM FM11 [+]        
1 25114U 97084C   23291.66140598  .00002812  00000+0  90602-3 0  9999
2 25114  45.0157  34.9368 0004156  29.1247 330.9834 14.41239080353712
ORBCOMM FM12 [-]        
1 25115U 97084D   23291.54831242  .00002828  00000+0  91127-3 0  9990
2 25115  45.0167  35.1181 0003200  29.6540 330.4491 14.41226803353735
ORBCOMM FM09 [-]        
1 25116U 97084E   23292.31771505  .00002725  00000+0  87995-3 0  9996
2 25116  45.0172  32.0848 0004503  12.4686 347.6275 14.41209187353844
